{
  "type": "FeatureCollection",
  "features": [
    {
      "type": "Feature",
      "properties": {
        "norad_id": 24876,
        "name": "GPS BIIR-2  (PRN 13)",
        "group": "gps-ops",
        "lat": 32.37259653440143,
        "lon": 131.23463992358415,
        "alt_km": 19932.08577941285,
        "timestamp": "2025-12-13T18:50:04.689169+00:00",
        "meta_object_name": "GPS BIIR-2  (PRN 13)",
        "meta_object_id": "1997-035A",
        "meta_epoch": "2025-12-12T17:35:03.459552",
        "meta_mean_motion": 2.00563636,
        "meta_eccentricity": 0.00967745,
        "meta_inclination": 55.8952,
        "meta_ra_of_asc_node": 105.8691,
        "meta_arg_of_pericenter": 56.9985,
        "meta_mean_anomaly": 303.9066,
        "meta_ephemeris_type": 0,
        "meta_classification_type": "U",
        "meta_norad_cat_id": 24876,
        "meta_element_set_no": 999,
        "meta_rev_at_epoch": 20821,
        "meta_bstar": 0,
        "meta_mean_motion_dot": 1e-07,
        "meta_mean_motion_ddot": 0,
        "tle_line1": "1 24876U 97035A   25346.73267893  .00000010  00000+0  00000+0 0  9995",
        "tle_line2": "2 24876  55.8952 105.8691 0096774  56.9985 303.9066  2.00563636208219"
      },
      "geometry": {
        "type": "Point",
        "coordinates": [
          131.23463992358415,
          32.37259653440143
        ]
      }
    },
    {
      "type": "Feature",
      "properties": {
        "norad_id": 26360,
        "name": "GPS BIIR-4  (PRN 20)",
        "group": "gps-ops",
        "lat": 37.45247353506901,
        "lon": 174.43476143152182,
        "alt_km": 20212.20294433502,
        "timestamp": "2025-12-13T18:50:04.689196+00:00",
        "meta_object_name": "GPS BIIR-4  (PRN 20)",
        "meta_object_id": "2000-025A",
        "meta_epoch": "2025-12-13T02:44:33.459360",
        "meta_mean_motion": 2.00567712,
        "meta_eccentricity": 0.00388747,
        "meta_inclination": 55.0454,
        "meta_ra_of_asc_node": 26.8226,
        "meta_arg_of_pericenter": 242.031,
        "meta_mean_anomaly": 126.3548,
        "meta_ephemeris_type": 0,
        "meta_classification_type": "U",
        "meta_norad_cat_id": 26360,
        "meta_element_set_no": 999,
        "meta_rev_at_epoch": 18754,
        "meta_bstar": 0,
        "meta_mean_motion_dot": -9.9e-07,
        "meta_mean_motion_ddot": 0,
        "tle_line1": "1 26360U 00025A   25347.11427615 -.00000099  00000+0  00000+0 0  9999",
        "tle_line2": "2 26360  55.0454  26.8226 0038874 242.0310 126.3548  2.00567712187544"
      },
      "geometry": {
        "type": "Point",
        "coordinates": [
          174.43476143152182,
          37.45247353506901
        ]
      }
    },
    {
      "type": "Feature",
      "properties": {
        "norad_id": 26407,
        "name": "GPS BIIR-5  (PRN 22)",
        "group": "gps-ops",
        "lat": -21.958193914568668,
        "lon": -153.92952127937633,
        "alt_km": 19897.073250081805,
        "timestamp": "2025-12-13T18:50:04.689213+00:00",
        "meta_object_name": "GPS BIIR-5  (PRN 22)",
        "meta_object_id": "2000-040A",
        "meta_epoch": "2025-12-13T01:34:44.094432",
        "meta_mean_motion": 2.00567991,
        "meta_eccentricity": 0.01259938,
        "meta_inclination": 54.8907,
        "meta_ra_of_asc_node": 222.556,
        "meta_arg_of_pericenter": 301.8176,
        "meta_mean_anomaly": 231.1647,
        "meta_ephemeris_type": 0,
        "meta_classification_type": "U",
        "meta_norad_cat_id": 26407,
        "meta_element_set_no": 999,
        "meta_rev_at_epoch": 18621,
        "meta_bstar": 0,
        "meta_mean_motion_dot": 1.8e-07,
        "meta_mean_motion_ddot": 0,
        "tle_line1": "1 26407U 00040A   25347.06578813  .00000018  00000+0  00000+0 0  9999",
        "tle_line2": "2 26407  54.8907 222.5560 0125993 301.8176 231.1647  2.00567991186212"
      },
      "geometry": {
        "type": "Point",
        "coordinates": [
          -153.92952127937633,
          -21.958193914568668
        ]
      }
    },
    {
      "type": "Feature",
      "properties": {
        "norad_id": 27663,
        "name": "GPS BIIR-8  (PRN 16)",
        "group": "gps-ops",
        "lat": 50.52424759000789,
        "lon": -16.135662591741276,
        "alt_km": 19961.51057795865,
        "timestamp": "2025-12-13T18:50:04.689227+00:00",
        "meta_object_name": "GPS BIIR-8  (PRN 16)",
        "meta_object_id": "2003-005A",
        "meta_epoch": "2025-12-12T09:13:58.066176",
        "meta_mean_motion": 2.00570939,
        "meta_eccentricity": 0.01474491,
        "meta_inclination": 54.9234,
        "meta_ra_of_asc_node": 222.3924,
        "meta_arg_of_pericenter": 51.7949,
        "meta_mean_anomaly": 125.2746,
        "meta_ephemeris_type": 0,
        "meta_classification_type": "U",
        "meta_norad_cat_id": 27663,
        "meta_element_set_no": 999,
        "meta_rev_at_epoch": 16756,
        "meta_bstar": 0,
        "meta_mean_motion_dot": 1.1e-07,
        "meta_mean_motion_ddot": 0,
        "tle_line1": "1 27663U 03005A   25346.38469984  .00000011  00000+0  00000+0 0  9993",
        "tle_line2": "2 27663  54.9234 222.3924 0147449  51.7949 125.2746  2.00570939167568"
      },
      "geometry": {
        "type": "Point",
        "coordinates": [
          -16.135662591741276,
          50.52424759000789
        ]
      }
    },
    {
      "type": "Feature",
      "properties": {
        "norad_id": 28190,
        "name": "GPS BIIR-11 (PRN 19)",
        "group": "gps-ops",
        "lat": -54.94787711987434,
        "lon": -170.36698957887046,
        "alt_km": 20237.044623472426,
        "timestamp": "2025-12-13T18:50:04.689240+00:00",
        "meta_object_name": "GPS BIIR-11 (PRN 19)",
        "meta_object_id": "2004-009A",
        "meta_epoch": "2025-12-11T22:20:18.324960",
        "meta_mean_motion": 2.00560799,
        "meta_eccentricity": 0.0108335,
        "meta_inclination": 54.9863,
        "meta_ra_of_asc_node": 283.2515,
        "meta_arg_of_pericenter": 167.6362,
        "meta_mean_anomaly": 200.4215,
        "meta_ephemeris_type": 0,
        "meta_classification_type": "U",
        "meta_norad_cat_id": 28190,
        "meta_element_set_no": 999,
        "meta_rev_at_epoch": 15919,
        "meta_bstar": 0,
        "meta_mean_motion_dot": -7.6e-07,
        "meta_mean_motion_ddot": 0,
        "tle_line1": "1 28190U 04009A   25345.93076765 -.00000076  00000+0  00000+0 0  9997",
        "tle_line2": "2 28190  54.9863 283.2515 0108335 167.6362 200.4215  2.00560799159191"
      },
      "geometry": {
        "type": "Point",
        "coordinates": [
          -170.36698957887046,
          -54.94787711987434
        ]
      }
    },
    {
      "type": "Feature",
      "properties": {
        "norad_id": 28474,
        "name": "GPS BIIR-13 (PRN 02)",
        "group": "gps-ops",
        "lat": -26.214043856932616,
        "lon": -47.63482417553423,
        "alt_km": 19753.458476168104,
        "timestamp": "2025-12-13T18:50:04.689253+00:00",
        "meta_object_name": "GPS BIIR-13 (PRN 02)",
        "meta_object_id": "2004-045A",
        "meta_epoch": "2025-12-12T12:01:27.782400",
        "meta_mean_motion": 2.00569519,
        "meta_eccentricity": 0.0170757,
        "meta_inclination": 55.2408,
        "meta_ra_of_asc_node": 332.4152,
        "meta_arg_of_pericenter": 309.2412,
        "meta_mean_anomaly": 170.6572,
        "meta_ephemeris_type": 0,
        "meta_classification_type": "U",
        "meta_norad_cat_id": 28474,
        "meta_element_set_no": 999,
        "meta_rev_at_epoch": 15468,
        "meta_bstar": 0,
        "meta_mean_motion_dot": -8.8e-07,
        "meta_mean_motion_ddot": 0,
        "tle_line1": "1 28474U 04045A   25346.50101600 -.00000088  00000+0  00000+0 0  9996",
        "tle_line2": "2 28474  55.2408 332.4152 0170757 309.2412 170.6572  2.00569519154688"
      },
      "geometry": {
        "type": "Point",
        "coordinates": [
          -47.63482417553423,
          -26.214043856932616
        ]
      }
    },
    {
      "type": "Feature",
      "properties": {
        "norad_id": 28874,
        "name": "GPS BIIRM-1 (PRN 17)",
        "group": "gps-ops",
        "lat": -52.135199428617604,
        "lon": -143.3894766066179,
        "alt_km": 19839.957678108887,
        "timestamp": "2025-12-13T18:50:04.689265+00:00",
        "meta_object_name": "GPS BIIRM-1 (PRN 17)",
        "meta_object_id": "2005-038A",
        "meta_epoch": "2025-12-10T14:00:21.521088",
        "meta_mean_motion": 2.00578486,
        "meta_eccentricity": 0.0131701,
        "meta_inclination": 55.0338,
        "meta_ra_of_asc_node": 280.7877,
        "meta_arg_of_pericenter": 293.4518,
        "meta_mean_anomaly": 200.7371,
        "meta_ephemeris_type": 0,
        "meta_classification_type": "U",
        "meta_norad_cat_id": 28874,
        "meta_element_set_no": 999,
        "meta_rev_at_epoch": 14805,
        "meta_bstar": 0,
        "meta_mean_motion_dot": -6.4e-07,
        "meta_mean_motion_ddot": 0,
        "tle_line1": "1 28874U 05038A   25344.58358242 -.00000064  00000+0  00000+0 0  9999",
        "tle_line2": "2 28874  55.0338 280.7877 0131701 293.4518 200.7371  2.00578486148057"
      },
      "geometry": {
        "type": "Point",
        "coordinates": [
          -143.3894766066179,
          -52.135199428617604
        ]
      }
    }
  ]
}